MMS 4                   
1 40485U 15011D   24235.91667824 -.00002218  00000+0  00000+0 0  9990
2 40485  52.3158   6.4869 9049325 150.5709 103.0049  0.28417335  1381
ASTROSAT                
1 40930U 15052A   24236.75395748  .00003767  00000+0  40765-3 0  9991
2 40930   5.9963 235.2318 0008980 310.3261  49.6082 14.79345261481481
DAMPE                   
1 41173U 15078A   24237.20116761  .00002990  00000+0  11359-3 0  9990
2 41173  97.4344 230.4819 0010922 260.4465  99.5540 15.27554405483361
PISAT                   
1 41784U 16059B   24237.13052562  .00002536  00000+0  46503-3 0  9993
2 41784  97.8326 256.0447 0031265 154.9857 205.2871 14.66265554422619
HXMT (HUIYAN)           
1 42758U 17034A   24237.20148648  .00009961  00000+0  52022-3 0  9990
2 42758  43.0134 258.0795 0013546 226.1748 133.7981 15.15948262397170
FLYING LAPTOP           
1 42831U 17042G   24237.16698996  .00004642  00000+0  42164-3 0  9999
2 42831  97.3894  54.2035 0012165 201.9979 158.0722 14.95661410387292
ZHANGHENG 1 (CSES)      
1 43194U 18015C   24237.17486849  .00022344  00000+0  10022-2 0  9992
2 43194  97.6189  21.5963 0009541 279.3808  80.6348 15.21180218364028
SALSAT                  
1 46495U 20068K   24237.16188196  .00012029  00000+0  65417-3 0  9991
2 46495  97.8224 198.2415 0015877  83.6244 276.6794 15.14524621214590
IXPE                    
1 49954U 21121A   24236.58334491  .00012222  00000+0  90477-3 0  9990
2 49954   0.2301 252.8813 0009843 201.5876 135.7222 14.99319623  5757
<!DOCTYPE html PUBLIC "-//W3C//DTD XHTML 1.0 Strict//EN" "http://www.w3.org/TR/xhtml1/DTD/xhtml1-strict.dtd">
<html xmlns="http://www.w3.org/1999/xhtml">
<head>
<meta http-equiv="Content-Type" content="text/html; charset=iso-8859-1"/>
<title>404 - File Not Found.</title>
<style type="text/css">
<!--
body{margin:0;font-size:.7em;font-family:Verdana, Arial, Helvetica, sans-serif;background:#EEEEEE;}
fieldset{padding:0 15px 10px 15px;}
h1{font-size:2.4em;margin:0;color:#FFF;}
h2{font-size:1.7em;margin:0;color:#CC0000;}
h3{font-size:1.2em;margin:10px 0 0 0;color:#000000;}
#header{width:96%;margin:0 0 0 0;padding:6px 2% 6px 2%;font-family:"trebuchet MS", Verdana, sans-serif;color:#FFF;
background-color:#555555;}
#content{margin:0 0 0 2%;position:relative;}
.content-container{background:#FFF;width:96%;margin-top:8px;padding:10px;position:relative;}
-->
</style>
</head>
<body>
<div id="header"><h1>Server Error</h1></div>
<div id="content">
 <div class="content-container"><fieldset>
  <h2>404 - File Not Found.</h2>
  <h3>File not found for celestrak.org/NORAD/elements/ses.txt.</h3>
  <h3>Please contact <a href="mailto:ts.kelso@celestrak.org">ts.kelso@celestrak.org</a> if you have other questions.</h3>
 </fieldset></div>
</div>
</body>
</html>
ISS (ZARYA)             
1 25544U 98067A   24237.37166940  .00034677  00000+0  61243-3 0  9999
2 25544  51.6404 337.5221 0006373 267.3754 202.7913 15.50005774469128
CSS (TIANHE)            
1 48274U 21035A   24236.69552185  .00056264  00000+0  63455-3 0  9992
2 48274  41.4696  31.7196 0003050 289.1756  70.8753 15.61630456189656
ISS (NAUKA)             
1 49044U 21066A   24236.54504630  .00012411  00000+0  22557-3 0  9992
2 49044  51.6398 341.6185 0006469 261.9984 272.6227 15.49926805174938
FREGAT DEB              
1 49271U 11037PF  24235.45318248  .00001896  00000+0  43513-2 0  9997
2 49271  51.6658 156.8975 0954019 270.1247  79.0461 12.20341101143288
CSS (WENTIAN)           
1 53239U 22085A   24236.43971130  .00056252  00000+0  63495-3 0  9993
2 53239  41.4694  33.2792 0003043 290.2018  69.8494 15.61608544189008
CSS (MENGTIAN)          
1 54216U 22143A   24236.43971130  .00056252  00000+0  63495-3 0  9994
2 54216  41.4694  33.2792 0003043 290.2018  69.8494 15.61608544103370
TIANZHOU-7              
1 58811U 24013A   24236.43971130  .00056252  00000+0  63495-3 0  9997
2 58811  41.4694  33.2792 0003043 290.2018  69.8494 15.61608544159927
CREW DRAGON 8           
1 59097U 24042A   24236.54504630  .00012411  00000+0  22557-3 0  9998
2 59097  51.6398 341.6185 0006469 261.9984 272.6227 15.49926805 26595
SOYUZ-MS 25             
1 59294U 24055A   24236.54504630  .00012411  00000+0  22557-3 0  9991
2 59294  51.6398 341.6185 0006469 261.9984 272.6227 15.49926805 23917
CURTIS                  
1 59507U 98067WG  24236.66335022  .00299664  00000+0  12583-2 0  9996
2 59507  51.6236 327.6767 0009294 312.5218  47.5000 15.84105974 21086
1998-067WJ              
1 59559U 98067WJ  24236.96623206  .00325876  00000+0  14508-2 0  9994
2 59559  51.6285 327.4935 0007250 337.8848  22.1841 15.82823374 19988
1998-067WL              
1 59561U 98067WL  24236.52127153  .00075715  00000+0  79952-3 0  9998
2 59561  51.6334 335.8110 0001566 274.8092  85.2724 15.63521892 19809
BURSTCUBE               
1 59562U 98067WM  24236.70867654  .00324366  00000+0  14844-2 0  9993
2 59562  51.6286 328.7796 0007954 327.4674  32.5837 15.82231655 19924
SNOOPI                  
1 59563U 98067WN  24236.54572613  .00235677  00000+0  13991-2 0  9992
2 59563  51.6308 331.4675 0006791 321.3020  38.7493 15.76752467 19864
SHENZHOU-18 (SZ-18)     
1 59591U 24078A   24236.43971130  .00056252  00000+0  63495-3 0  9994
2 59591  41.4694  33.2792 0003043 290.2018  69.8494 15.61608544 18567
1998-067WP              
1 59596U 98067WP  24237.24651321  .01351206  11326-2  17078-2 0  9994
2 59596  51.6202 321.7833 0012250 342.1989  17.8593 16.06926026 20097
1998-067WQ              
1 59597U 98067WQ  24237.23670314  .01274207  97133-3  16709-2 0  9993
2 59597  51.6257 321.7587 0012192 340.7765  19.2786 16.06301465 20066
SZ-17 MODULE            
1 59624U 23164C   24236.78028764  .00074473  00000+0  54004-3 0  9991
2 59624  41.4758  27.0269 0009271 357.0457   3.0330 15.72370871 18158
PROGRESS-MS 27          
1 59913U 24103A   24236.54504630  .00012411  00000+0  22557-3 0  9993
2 59913  51.6398 341.6185 0006469 261.9984 272.6227 15.49926805 13318
STARLINER CFT-1         
1 59968U 24109A   24236.54504630  .00012411  00000+0  22557-3 0  9999
2 59968  51.6398 341.6185 0006469 261.9984 272.6227 15.49926805 12328
CYGNUS NG-21            
1 60378U 24139A   24236.54504630  .00012411  00000+0  22557-3 0  9999
2 60378  51.6398 341.6185 0006469 261.9984 272.6227 15.49926805  2852
PROGRESS-MS 28          
1 60450U 24145A   24236.54504630  .00012411  00000+0  22557-3 0  9997
2 60450  51.6398 341.6185 0006469 261.9984 272.6227 15.49926805468994
TDRS 3                  
1 19548U 88091B   24237.09354934 -.00000306  00000+0  00000+0 0  9996
2 19548  13.1101 345.4413 0033332 335.9688 356.0737  1.00263986118721
HST                     
1 20580U 90037B   24237.22126306  .00009121  00000+0  41602-3 0  9992
2 20580  28.4679 248.9641 0002494  72.7988 287.2877 15.18887623687648
TDRS 5                  
1 21639U 91054B   24237.18964275 -.00000309  00000+0  00000+0 0  9991
2 21639  14.1535 358.6038 0005046 218.4587 121.8303  1.00277152121079
TDRS 6                  
1 22314U 93003B   24237.15462350 -.00000303  00000+0  00000+0 0  9996
2 22314  14.1650   1.9071 0012182 168.6899 172.1003  1.00269998115746
TDRS 7                  
1 23613U 95035B   24236.62411847 -.00000210  00000+0  00000+0 0  9999
2 23613  13.6535 352.7495 0026173  76.9164 212.3985  1.00272898106506
ISS (ZARYA)             
1 25544U 98067A   24237.37166940  .00034677  00000+0  61243-3 0  9999
2 25544  51.6404 337.5221 0006373 267.3754 202.7913 15.50005774469128
LANDSAT 7               
1 25682U 99020A   24237.24049863  .00001243  00000+0  26326-3 0  9998
2 25682  97.8856 260.8139 0001773 101.2356 326.2689 14.60858434349132
TERRA                   
1 25994U 99068A   24237.14636370  .00001269  00000+0  27395-3 0  9995
2 25994  98.0429 298.6264 0002958 129.3036 283.4282 14.59976711313082
TDRS 8                  
1 26388U 00034A   24236.66632997  .00000086  00000+0  00000+0 0  9991
2 26388  11.6335  36.6503 0003538 183.3613 184.9472  1.00259197 88538
TIMED                   
1 26998U 01055B   24236.78793595  .00003569  00000+0  35690-3 0  9993
2 26998  74.0708 125.8938 0001691 202.8264 157.2843 14.91855080232041
AQUA                    
1 27424U 02022A   24237.17501341  .00002711  00000+0  57861-3 0  9995
2 27424  98.3342 186.8281 0000834  88.1743 329.0621 14.59702529186631
TDRS 10                 
1 27566U 02055A   24236.72986343  .00000079  00000+0  00000+0 0  9991
2 27566   9.6838  44.8740 0003199 351.8000  27.4111  1.00273616 79589
SORCE                   
1 27651U 03004A   24237.00696377  .00006526  00000+0  58182-3 0  9999
2 27651  39.9930  61.3149 0021595 353.0593   6.9897 14.95982143172421
AURA                    
1 28376U 04026A   24236.59119044  .00002767  00000+0  60010-3 0  9999
2 28376  98.2536 180.9810 0001022 121.1212 239.0087 14.58926858 69508
SWIFT                   
1 28485U 04047A   24236.57383159  .00022138  00000+0  92872-3 0  9996
2 28485  20.5558  58.0051 0008699  68.2074 291.9288 15.21471851 84446
THEMIS A                
1 30580U 07004A   24235.50041733 -.00000150  00000+0  00000+0 0  9991
2 30580   9.3783 260.1355 8367277 332.2070   1.2737  0.87834855 35441
THEMIS D                
1 30797U 07004D   24236.54122222 -.00000084  00000+0  00000+0 0  9995
2 30797   5.0111 258.8328 8359911 337.6897 318.7746  0.87835903 35244
THEMIS E                
1 30798U 07004E   24236.40546935 -.00000101  00000+0  00000+0 0  9992
2 30798   6.9206 278.5181 8349633 319.1683 290.3950  0.87833423 60081
FGRST (GLAST)           
1 33053U 08029A   24237.04924099  .00007013  00000+0  32426-3 0  9998
2 33053  25.5821 103.0299 0010393 103.1335 257.0362 15.17522028895117
TDRS 11                 
1 39070U 13004A   24237.22569591  .00000071  00000+0  00000+0 0  9990
2 39070   2.7810  14.0060 0005227  65.1213 160.6958  1.00269415 42340
